NORAD_CAT_ID,OBJECT_NAME,OBJECT_TYPE,EPOCH,MEAN_MOTION,ECCENTRICITY,INCLINATION,RA_OF_ASC_NODE,ARG_OF_PERICENTER,MEAN_ANOMALY,BSTAR,MEAN_MOTION_DOT,MEAN_MOTION_DDOT,TLE_LINE0,TLE_LINE1,TLE_LINE2,SEMIMAJOR_AXIS,PERIOD,APOGEE,PERIGEE,DECAYED
52264.0,STARLINK-3795,PAYLOAD,2024-02-11 14:01:17,15.08837789,0.0001193,53.2175,267.8985,101.2213,258.8913,0.00013503,1.862e-05,0.0,0 STARLINK-3795,1 52264U 22041D   24042.58422918  .00001862  00000-0  13503-3 0  9991,2 52264  53.2175 267.8985 0001193 101.2213 258.8913 15.08837789100062,6917.887,95.438,540.577,538.927,0.0
52264.0,STARLINK-3795,PAYLOAD,2024-02-11 20:22:49,15.08840805,0.0001343,53.2173,266.7086,110.6584,249.4552,7.9609e-05,9.79e-06,0.0,0 STARLINK-3795,1 52264U 22041D   24042.84918857  .00000979  00000-0  79609-4 0  9990,2 52264  53.2173 266.7086 0001343 110.6584 249.4552 15.08840805101319,6917.878,95.438,540.672,538.814,0.0
52264.0,STARLINK-3795,PAYLOAD,2024-02-11 23:33:36,15.08841658,0.0001347,53.2177,266.1142,108.0853,252.0286,7.7561e-05,9.47e-06,0.0,0 STARLINK-3795,1 52264U 22041D   24042.98166770  .00000947  00000-0  77561-4 0  9994,2 52264  53.2177 266.1142 0001347 108.0853 252.0286 15.08841658100123,6917.875,95.437,540.672,538.808,0.0
52264.0,STARLINK-3795,PAYLOAD,2024-02-12 20:13:37,15.08836289,0.0001366,53.2173,262.2489,101.0366,259.078,-1.5515e-07,-2.9e-06,0.0,0 STARLINK-3795,1 52264U 22041D   24043.84279657 -.00000290  00000-0 -15515-6 0  9995,2 52264  53.2173 262.2489 0001366 101.0366 259.0780 15.08836289101461,6917.892,95.438,540.702,538.812,0.0
52264.0,STARLINK-3795,PAYLOAD,2024-02-12 21:49:00,15.08836264,0.0001313,53.2172,261.9515,92.0922,268.022,1.5339e-06,-2.63e-06,0.0,0 STARLINK-3795,1 52264U 22041D   24043.90903640 -.00000263  00000-0  15339-5 0  9990,2 52264  53.2172 261.9515 0001313  92.0922 268.0220 15.08836264100264,6917.892,95.438,540.665,538.848,0.0
52264.0,STARLINK-3795,PAYLOAD,2024-02-13 07:21:19,15.08836785,0.0001307,53.2173,260.1669,101.3106,258.8034,3.7323e-05,3.06e-06,0.0,0 STARLINK-3795,1 52264U 22041D   24044.30647627  .00000306  00000-0  37323-4 0  9998,2 52264  53.2173 260.1669 0001307 101.3106 258.8034 15.08836785100322,6917.89,95.438,540.659,538.851,0.0
52264.0,STARLINK-3795,PAYLOAD,2024-02-13 21:39:47,15.08845248,0.0001272,53.2174,257.4885,89.8982,270.2156,6.3628e-05,7.25e-06,0.0,0 STARLINK-3795,1 52264U 22041D   24044.90263242  .00000725  00000-0  63628-4 0  9993,2 52264  53.2174 257.4885 0001272  89.8982 270.2156 15.08845248100412,6917.864,95.437,540.609,538.849,0.0
52264.0,STARLINK-3795,PAYLOAD,2024-02-14 13:33:38,15.08841845,0.0001235,53.2164,254.5172,92.0074,268.106,0.00011785,1.588e-05,0.0,0 STARLINK-3795,1 52264U 22041D   24045.56503450  .00001588  00000-0  11785-3 0  9998,2 52264  53.2164 254.5172 0001235  92.0074 268.1060 15.08841845100515,6917.875,95.437,540.594,538.885,0.0
52264.0,STARLINK-3795,PAYLOAD,2024-02-14 21:30:34,15.08844703,0.0001184,53.2161,253.0313,93.33,266.7828,0.00012861,1.76e-05,0.0,0 STARLINK-3795,1 52264U 22041D   24045.89623195  .00001760  00000-0  12861-3 0  9991,2 52264  53.2161 253.0313 0001184  93.3300 266.7828 15.08844703100569,6917.866,95.437,540.55,538.912,0.0
52264.0,STARLINK-3795,PAYLOAD,2024-02-15 07:02:53,15.08841575,0.0001196,53.216,251.246,89.4925,270.6204,0.00010025,1.308e-05,0.0,0 STARLINK-3795,1 52264U 22041D   24046.29367421  .00001308  00000-0  10025-3 0  9991,2 52264  53.2160 251.2460 0001196  89.4925 270.6204 15.08841575101830,6917.876,95.437,540.568,538.913,0.0
52264.0,STARLINK-3795,PAYLOAD,2024-02-15 19:45:58,15.08840635,0.000126,53.2158,248.8687,83.9813,276.1322,3.3988e-05,2.53e-06,0.0,0 STARLINK-3795,1 52264U 22041D   24046.82359741  .00000253  00000-0  33988-4 0  9998,2 52264  53.2158 248.8687 0001260  83.9813 276.1322 15.08840635100700,6917.878,95.438,540.615,538.872,0.0
52264.0,STARLINK-3795,PAYLOAD,2024-02-16 13:15:12,15.08862056,0.0001122,53.2153,245.5932,109.8222,250.2891,-0.00024555,-4.196e-05,0.0,0 STARLINK-3795,1 52264U 22041D   24047.55223080 -.00004196  00000-0 -24555-3 0  9996,2 52264  53.2153 245.5932 0001122 109.8222 250.2891 15.08862056100818,6917.813,95.436,540.454,538.902,0.0
52264.0,STARLINK-3795,PAYLOAD,2024-02-16 19:36:45,15.08845082,0.0001289,53.2154,244.4059,90.5688,269.5452,5.8649e-05,6.46e-06,0.0,0 STARLINK-3795,1 52264U 22041D   24047.81719112  .00000646  00000-0  58649-4 0  9997,2 52264  53.2154 244.4059 0001289  90.5688 269.5452 15.08845082102068,6917.865,95.437,540.622,538.838,0.0
52264.0,STARLINK-3795,PAYLOAD,2024-02-16 22:47:31,15.08846583,0.0001288,53.2154,243.8108,92.3424,267.7715,6.7511e-05,7.87e-06,0.0,0 STARLINK-3795,1 52264U 22041D   24047.94966939  .00000787  00000-0  67511-4 0  9996,2 52264  53.2154 243.8108 0001288  92.3424 267.7715 15.08846583100879,6917.86,95.437,540.616,538.834,0.0
52264.0,STARLINK-3795,PAYLOAD,2024-02-17 19:27:32,15.0883771,0.0001271,53.2155,239.9443,91.2658,268.848,6.7911e-05,7.93e-06,0.0,0 STARLINK-3795,1 52264U 22041D   24048.81079536  .00000793  00000-0  67911-4 0  9992,2 52264  53.2155 239.9443 0001271  91.2658 268.8480 15.08837710102210,6917.887,95.438,540.632,538.873,0.0
52264.0,STARLINK-3795,PAYLOAD,2024-02-17 22:38:19,15.08838942,0.000129,53.2159,239.3494,87.8331,272.2809,3.4124e-05,2.55e-06,0.0,0 STARLINK-3795,1 52264U 22041D   24048.94327566  .00000255  00000-0  34124-4 0  9998,2 52264  53.2159 239.3494 0001290  87.8331 272.2809 15.08838942101024,6917.884,95.438,540.641,538.856,0.0
52264.0,STARLINK-3795,PAYLOAD,2024-02-18 12:56:47,15.08838358,0.0001241,53.2165,236.6726,90.7748,269.3386,4.8794e-05,4.89e-06,0.0,0 STARLINK-3795,1 52264U 22041D   24049.53943590  .00000489  00000-0  48794-4 0  9992,2 52264  53.2165 236.6726 0001241  90.7748 269.3386 15.08838358101118,6917.885,95.438,540.609,538.892,0.0
52264.0,STARLINK-3795,PAYLOAD,2024-02-18 19:18:19,15.08843375,0.0001263,53.2157,235.4847,87.6319,272.4818,5.7583e-05,6.29e-06,0.0,0 STARLINK-3795,1 52264U 22041D   24049.80439256  .00000629  00000-0  57583-4 0  9993,2 52264  53.2157 235.4847 0001263  87.6319 272.4818 15.08843375101157,6917.87,95.437,540.609,538.861,0.0
52264.0,STARLINK-3795,PAYLOAD,2024-02-19 04:50:38,15.08842049,0.0001168,53.2156,233.7007,88.76,271.3526,1.4703e-05,-5.4e-07,0.0,0 STARLINK-3795,1 52264U 22041D   24050.20183400 -.00000054  00000-0  14703-4 0  9996,2 52264  53.2156 233.7007 0001168  88.7600 271.3526 15.08842049102426,6917.874,95.437,540.547,538.931,0.0
52264.0,STARLINK-3795,PAYLOAD,2024-02-19 19:09:07,15.08832817,0.0001325,53.2166,231.0256,90.2641,269.8503,4.9571e-06,-2.09e-06,0.0,0 STARLINK-3795,1 52264U 22041D   24050.79800269 -.00000209  00000-0  49571-5 0  9993,2 52264  53.2166 231.0256 0001325  90.2641 269.8503 15.08832817102511,6917.902,95.438,540.684,538.851,0.0
52264.0,STARLINK-3795,PAYLOAD,2024-02-20 11:02:58,15.08835479,0.0001348,53.2171,228.0522,91.0103,269.1043,5.0922e-05,5.23e-06,0.0,0 STARLINK-3795,1 52264U 22041D   24051.46040168  .00000523  00000-0  50922-4 0  9991,2 52264  53.2171 228.0522 0001348  91.0103 269.1043 15.08835479101402,6917.894,95.438,540.692,538.827,0.0
52264.0,STARLINK-3795,PAYLOAD,2024-02-20 18:59:54,15.08840968,0.0001351,53.2173,226.5656,91.5467,268.568,4.8731e-05,4.88e-06,0.0,0 STARLINK-3795,1 52264U 22041D   24051.79159870  .00000488  00000-0  48731-4 0  9993,2 52264  53.2173 226.5656 0001351  91.5467 268.5680 15.08840968102665,6917.877,95.437,540.677,538.808,0.0
52264.0,STARLINK-3795,PAYLOAD,2024-02-20 20:35:17,15.08842868,0.0001377,53.2174,226.2684,92.4987,267.6163,6.3571e-05,7.24e-06,0.0,0 STARLINK-3795,1 52264U 22041D   24051.85783687  .00000724  00000-0  63571-4 0  9991,2 52264  53.2174 226.2684 0001377  92.4987 267.6163 15.08842868101463,6917.872,95.437,540.689,538.784,0.0
52264.0,STARLINK-3795,PAYLOAD,2024-02-21 04:32:13,15.0883675,0.0001431,53.2177,224.7811,88.3359,271.7797,2.8089e-05,1.59e-06,0.0,0 STARLINK-3795,1 52264U 22041D   24052.18904230  .00000159  00000-0  28089-4 0  9994,2 52264  53.2177 224.7811 0001431  88.3359 271.7797 15.08836750101517,6917.89,95.438,540.745,538.765,0.0
52264.0,STARLINK-3795,PAYLOAD,2024-02-21 18:50:41,15.08839892,0.00014,53.2174,222.1034,83.0453,277.0698,6.2658e-05,7.09e-06,0.0,0 STARLINK-3795,1 52264U 22041D   24052.78520037  .00000709  00000-0  62658-4 0  9990,2 52264  53.2174 222.1034 0001400  83.0453 277.0698 15.08839892101605,6917.881,95.438,540.714,538.777,0.0
52264.0,STARLINK-3795,PAYLOAD,2024-02-22 04:23:00,15.08841574,0.0001445,53.2177,220.3195,84.4439,275.6718,3.3121e-05,2.39e-06,0.0,0 STARLINK-3795,1 52264U 22041D   24053.18264001  .00000239  00000-0  33121-4 0  9992,2 52264  53.2177 220.3195 0001445  84.4439 275.6718 15.08841574102871,6917.876,95.437,540.74,538.741,0.0
52264.0,STARLINK-3795,PAYLOAD,2024-02-22 18:41:28,15.08843398,0.0001325,53.2165,217.644,82.8584,277.2559,4.8422e-05,4.83e-06,0.0,0 STARLINK-3795,1 52264U 22041D   24053.77879852  .00000483  00000-0  48422-4 0  9994,2 52264  53.2165 217.6440 0001325  82.8584 277.2559 15.08843398101753,6917.87,95.437,540.652,538.818,0.0
52264.0,STARLINK-3795,PAYLOAD,2024-02-23 04:13:46,15.08843671,0.0001262,53.2162,215.8601,89.1872,270.9265,2.6939e-05,1.41e-06,0.0,0 STARLINK-3795,1 52264U 22041D   24054.17623762  .00000141  00000-0  26939-4 0  9996,2 52264  53.2162 215.8601 0001262  89.1872 270.9265 15.08843671101814,6917.869,95.437,540.607,538.861,0.0
52264.0,STARLINK-3795,PAYLOAD,2024-02-23 20:07:38,15.08845327,0.0001405,53.2169,212.8836,94.1311,265.9841,4.7247e-05,4.64e-06,0.0,0 STARLINK-3795,1 52264U 22041D   24054.83863566  .00000464  00000-0  47247-4 0  9990,2 52264  53.2169 212.8836 0001405  94.1311 265.9841 15.08845327103121,6917.864,95.437,540.701,538.757,0.0
52264.0,STARLINK-3795,PAYLOAD,2024-02-24 13:36:53,15.08836075,0.0001407,53.2161,209.6111,102.5834,257.5315,-5.4578e-06,-3.75e-06,0.0,0 STARLINK-3795,1 52264U 22041D   24055.56728323 -.00000375  00000-0 -54578-5 0  9991,2 52264  53.2161 209.6111 0001407 102.5834 257.5315 15.08836075102020,6917.892,95.438,540.731,538.784,0.0
